{"type": "FeatureCollection", "features": [ {"type": "Feature", "properties": {"norad_id": 32289, "name": "YAOGAN-3", "group": "resource", "lat": -54.395624200518874, "lon": -170.21622229209513, "alt_km": 606.1138642900414, "timestamp": "2025-12-20T07:33:50.460195+00:00", "meta": {"OBJECT_NAME": "YAOGAN-3", "OBJECT_ID": "2007-055A", "EPOCH": "2025-12-19T22:27:10.213632", "MEAN_MOTION": 14.89888529, "ECCENTRICITY": 0.00011881, "INCLINATION": 97.8359, "RA_OF_ASC_NODE": 20.4962, "ARG_OF_PERICENTER": 73.0706, "MEAN_ANOMALY": 287.0641, "EPHEMERIS_TYPE": 0, "CLASSIFICATION_TYPE": "U", "NORAD_CAT_ID": 32289, "ELEMENT_SET_NO": 999, "REV_AT_EPOCH": 97916, "BSTAR": 0.00011389968, "MEAN_MOTION_DOT": 1.04e-05, "MEAN_MOTION_DDOT": 0}, "tle": {"line1": "1 32289U 07055A   25353.93553488  .00001040  00000+0  11390-3 0  9995", "line2": "2 32289  97.8359  20.4962 0001188  73.0706 287.0641 14.89888529979163"}}, "geometry": {"type": "Point", "coordinates": [-170.21622229209513, -54.395624200518874]}}, {"type": "Feature", "properties": {"norad_id": 32376, "name": "COSMO-SKYMED 2", "group": "resource", "lat": -55.46595030076423, "lon": -172.86399312043878, "alt_km": 630.3042685944147, "timestamp": "2025-12-20T07:33:50.460206+00:00", "meta": {"OBJECT_NAME": "COSMO-SKYMED 2", "OBJECT_ID": "2007-059A", "EPOCH": "2025-12-19T22:05:45.462048", "MEAN_MOTION": 14.8215075, "ECCENTRICITY": 0.00013535, "INCLINATION": 97.8804, "RA_OF_ASC_NODE": 175.1363, "ARG_OF_PERICENTER": 82.9394, "MEAN_ANOMALY": 277.1973, "EPHEMERIS_TYPE": 0, "CLASSIFICATION_TYPE": "U", "NORAD_CAT_ID": 32376, "ELEMENT_SET_NO": 999, "REV_AT_EPOCH": 97544, "BSTAR": 5.1680259e-05, "MEAN_MOTION_DOT": 3.59e-06, "MEAN_MOTION_DDOT": 0}, "tle": {"line1": "1 32376U 07059A   25353.92066507  .00000359  00000+0  51680-4 0  9995", "line2": "2 32376  97.8804 175.1363 0001353  82.9394 277.1973 14.82150750975440"}}, "geometry": {"type": "Point", "coordinates": [-172.86399312043878, -55.46595030076423]}}, {"type": "Feature", "properties": {"norad_id": 32382, "name": "RADARSAT-2", "group": "resource", "lat": -81.09379317703505, "lon": 73.23002075541234, "alt_km": 799.9064879325433, "timestamp": "2025-12-20T07:33:50.460217+00:00", "meta": {"OBJECT_NAME": "RADARSAT-2", "OBJECT_ID": "2007-061A", "EPOCH": "2025-12-19T23:34:36.537312", "MEAN_MOTION": 14.29983859, "ECCENTRICITY": 0.00011092, "INCLINATION": 98.5791, "RA_OF_ASC_NODE": 358.4673, "ARG_OF_PERICENTER": 85.6069, "MEAN_ANOMALY": 274.524, "EPHEMERIS_TYPE": 0, "CLASSIFICATION_TYPE": "U", "NORAD_CAT_ID": 32382, "ELEMENT_SET_NO": 999, "REV_AT_EPOCH": 94034, "BSTAR": 3.9467192e-05, "MEAN_MOTION_DOT": 5.8e-07, "MEAN_MOTION_DDOT": 0}, "tle": {"line1": "1 32382U 07061A   25353.98236733  .00000058  00000+0  39467-4 0  9996", "line2": "2 32382  98.5791 358.4673 0001109  85.6069 274.5240 14.29983859940342"}}, "geometry": {"type": "Point", "coordinates": [73.23002075541234, -81.09379317703505]}}, {"type": "Feature", "properties": {"norad_id": 32783, "name": "CARTOSAT-2A", "group": "resource", "lat": -3.9693543191044025, "lon": 44.44675685523694, "alt_km": 628.5508571150713, "timestamp": "2025-12-20T07:33:50.460234+00:00", "meta": {"OBJECT_NAME": "CARTOSAT-2A", "OBJECT_ID": "2008-021A", "EPOCH": "2025-12-19T21:50:22.113024", "MEAN_MOTION": 14.78949388, "ECCENTRICITY": 0.0011298, "INCLINATION": 97.7925, "RA_OF_ASC_NODE": 43.5098, "ARG_OF_PERICENTER": 341.4154, "MEAN_ANOMALY": 18.6644, "EPHEMERIS_TYPE": 0, "CLASSIFICATION_TYPE": "U", "NORAD_CAT_ID": 32783, "ELEMENT_SET_NO": 999, "REV_AT_EPOCH": 95230, "BSTAR": 0.00010597904, "MEAN_MOTION_DOT": 7.32e-06, "MEAN_MOTION_DDOT": 0}, "tle": {"line1": "1 32783U 08021A   25353.90997816  .00000732  00000+0  10598-3 0  9998", "line2": "2 32783  97.7925  43.5098 0011298 341.4154  18.6644 14.78949388952305"}}, "geometry": {"type": "Point", "coordinates": [44.44675685523694, -3.9693543191044025]}}, {"type": "Feature", "properties": {"norad_id": 33320, "name": "HUANJING 1A (HJ-1A)", "group": "resource", "lat": -17.166662773680756, "lon": -15.321988971159344, "alt_km": 611.3402487358462, "timestamp": "2025-12-20T07:33:50.460244+00:00", "meta": {"OBJECT_NAME": "HUANJING 1A (HJ-1A)", "OBJECT_ID": "2008-041A", "EPOCH": "2025-12-19T23:32:50.093376", "MEAN_MOTION": 14.83414116, "ECCENTRICITY": 0.00196288, "INCLINATION": 97.6535, "RA_OF_ASC_NODE": 341.9772, "ARG_OF_PERICENTER": 11.3481, "MEAN_ANOMALY": 348.8172, "EPHEMERIS_TYPE": 0, "CLASSIFICATION_TYPE": "U", "NORAD_CAT_ID": 33320, "ELEMENT_SET_NO": 999, "REV_AT_EPOCH": 93183, "BSTAR": 0.00010046819, "MEAN_MOTION_DOT": 7.76e-06, "MEAN_MOTION_DDOT": 0}, "tle": {"line1": "1 33320U 08041A   25353.98113534  .00000776  00000+0  10047-3 0  9990", "line2": "2 33320  97.6535 341.9772 0019628  11.3481 348.8172 14.83414116931835"}}, "geometry": {"type": "Point", "coordinates": [-15.321988971159344, -17.166662773680756]}}, {"type": "Feature", "properties": {"norad_id": 33321, "name": "HUANJING 1B (HJ-1B)", "group": "resource", "lat": -8.671789924213622, "lon": 164.80140157652053, "alt_km": 643.8067526435007, "timestamp": "2025-12-20T07:33:50.460255+00:00", "meta": {"OBJECT_NAME": "HUANJING 1B (HJ-1B)", "OBJECT_ID": "2008-041B", "EPOCH": "2025-12-19T22:37:16.821120", "MEAN_MOTION": 14.82839799, "ECCENTRICITY": 0.00379852, "INCLINATION": 97.6395, "RA_OF_ASC_NODE": 345.6183, "ARG_OF_PERICENTER": 53.019, "MEAN_ANOMALY": 307.4492, "EPHEMERIS_TYPE": 0, "CLASSIFICATION_TYPE": "U", "NORAD_CAT_ID": 33321, "ELEMENT_SET_NO": 999, "REV_AT_EPOCH": 93184, "BSTAR": 0.00015884085, "MEAN_MOTION_DOT": 1.25e-05, "MEAN_MOTION_DDOT": 0}, "tle": {"line1": "1 33321U 08041B   25353.94255580  .00001250  00000+0  15884-3 0  9997", "line2": "2 33321  97.6395 345.6183 0037985  53.0190 307.4492 14.82839799931847"}}, "geometry": {"type": "Point", "coordinates": [164.80140157652053, -8.671789924213622]}}, {"type": "Feature", "properties": {"norad_id": 33331, "name": "GEOEYE 1", "group": "resource", "lat": 41.53512390380676, "lon": 58.230520919365446, "alt_km": 676.3759860140126, "timestamp": "2025-12-20T07:33:50.460266+00:00", "meta": {"OBJECT_NAME": "GEOEYE 1", "OBJECT_ID": "2008-042A", "EPOCH": "2025-12-19T18:15:22.928256", "MEAN_MOTION": 14.64709112, "ECCENTRICITY": 0.00028007, "INCLINATION": 98.1245, "RA_OF_ASC_NODE": 64.9529, "ARG_OF_PERICENTER": 254.2617, "MEAN_ANOMALY": 105.8277, "EPHEMERIS_TYPE": 0, "CLASSIFICATION_TYPE": "U", "NORAD_CAT_ID": 33331, "ELEMENT_SET_NO": 999, "REV_AT_EPOCH": 92388, "BSTAR": 8.4483362e-05, "MEAN_MOTION_DOT": 4.02e-06, "MEAN_MOTION_DDOT": 0}, "tle": {"line1": "1 33331U 08042A   25353.76068204  .00000402  00000+0  84483-4 0  9994", "line2": "2 33331  98.1245  64.9529 0002800 254.2617 105.8277 14.64709112923881"}}, "geometry": {"type": "Point", "coordinates": [58.230520919365446, 41.53512390380676]}}, {"type": "Feature", "properties": {"norad_id": 33396, "name": "THEOS", "group": "resource", "lat": 55.57632217140178, "lon": -115.08211608252975, "alt_km": 818.9526802280334, "timestamp": "2025-12-20T07:33:50.460278+00:00", "meta": {"OBJECT_NAME": "THEOS", "OBJECT_ID": "2008-049A", "EPOCH": "2025-12-19T22:31:48.393984", "MEAN_MOTION": 14.20097491, "ECCENTRICITY": 0.00011717, "INCLINATION": 98.5864, "RA_OF_ASC_NODE": 51.8163, "ARG_OF_PERICENTER": 95.9142, "MEAN_ANOMALY": 264.2169, "EPHEMERIS_TYPE": 0, "CLASSIFICATION_TYPE": "U", "NORAD_CAT_ID": 33396, "ELEMENT_SET_NO": 999, "REV_AT_EPOCH": 89252, "BSTAR": 4.9297604e-05, "MEAN_MOTION_DOT": 6.2e-07, "MEAN_MOTION_DDOT": 0}, "tle": {"line1": "1 33396U 08049A   25353.93875456  .00000062  00000+0  49298-4 0  9993", "line2": "2 33396  98.5864  51.8163 0001171  95.9142 264.2169 14.20097491892523"}}, "geometry": {"type": "Point", "coordinates": [-115.08211608252975, 55.57632217140178]}}, {"type": "Feature", "properties": {"norad_id": 33412, "name": "COSMO-SKYMED 3", "group": "resource", "lat": 12.825940098415847, "lon": -156.96450620920712, "alt_km": 559.4464967612348, "timestamp": "2025-12-20T07:33:50.460288+00:00", "meta": {"OBJECT_NAME": "COSMO-SKYMED 3", "OBJECT_ID": "2008-054A", "EPOCH": "2025-12-19T21:56:06.453312", "MEAN_MOTION": 15.05423109, "ECCENTRICITY": 0.00168567, "INCLINATION": 97.8468, "RA_OF_ASC_NODE": 204.4269, "ARG_OF_PERICENTER": 147.8142, "MEAN_ANOMALY": 212.4117, "EPHEMERIS_TYPE": 0, "CLASSIFICATION_TYPE": "U", "NORAD_CAT_ID": 33412, "ELEMENT_SET_NO": 999, "REV_AT_EPOCH": 92995, "BSTAR": 0.00044734165, "MEAN_MOTION_DOT": 6.377e-05, "MEAN_MOTION_DDOT": 0}, "tle": {"line1": "1 33412U 08054A   25353.91396358  .00006377  00000+0  44734-3 0  9999", "line2": "2 33412  97.8468 204.4269 0016856 147.8142 212.4117 15.05423109929959"}}, "geometry": {"type": "Point", "coordinates": [-156.96450620920712, 12.825940098415847]}}, {"type": "Feature", "properties": {"norad_id": 33446, "name": "YAOGAN-4", "group": "resource", "lat": 79.79431309624094, "lon": 154.9790297103095, "alt_km": 622.0563044394021, "timestamp": "2025-12-20T07:33:50.460299+00:00", "meta": {"OBJECT_NAME": "YAOGAN-4", "OBJECT_ID": "2008-061A", "EPOCH": "2025-12-19T10:04:29.303904", "MEAN_MOTION": 14.8270055, "ECCENTRICITY": 0.0013167, "INCLINATION": 97.919, "RA_OF_ASC_NODE": 283.4536, "ARG_OF_PERICENTER": 299.8838, "MEAN_ANOMALY": 60.1067, "EPHEMERIS_TYPE": 0, "CLASSIFICATION_TYPE": "U", "NORAD_CAT_ID": 33446, "ELEMENT_SET_NO": 999, "REV_AT_EPOCH": 91902, "BSTAR": 0.00012167, "MEAN_MOTION_DOT": 9.29e-06, "MEAN_MOTION_DDOT": 0}, "tle": {"line1": "1 33446U 08061A   25353.41978361  .00000929  00000+0  12167-3 0  9991", "line2": "2 33446  97.9190 283.4536 0013167 299.8838  60.1067 14.82700550919026"}}, "geometry": {"type": "Point", "coordinates": [154.9790297103095, 79.79431309624094]}}]}